[{"OBJECT_NAME":"LIZZIESAT-2 (LS-2)","OBJECT_ID":"2024-247G","EPOCH":"2026-03-09T11:47:37.199328","MEAN_MOTION":15.28222796,"ECCENTRICITY":0.00040927,"INCLINATION":44.9909,"RA_OF_ASC_NODE":117.0823,"ARG_OF_PERICENTER":327.5136,"MEAN_ANOMALY":32.5495,"EPHEMERIS_TYPE":0,"CLASSIFICATION_TYPE":"U","NORAD_CAT_ID":62383,"ELEMENT_SET_NO":999,"REV_AT_EPOCH":6771,"BSTAR":0.00034516624,"MEAN_MOTION_DOT":9.388e-5,"MEAN_MOTION_DDOT":0},{"OBJECT_NAME":"STARLINK-35302","OBJECT_ID":"2025-221Y","EPOCH":"2026-03-09T10:14:38.381568","MEAN_MOTION":15.30198771,"ECCENTRICITY":0.00012062,"INCLINATION":53.1586,"RA_OF_ASC_NODE":89.5268,"ARG_OF_PERICENTER":88.1967,"MEAN_ANOMALY":271.9171,"EPHEMERIS_TYPE":0,"CLASSIFICATION_TYPE":"U","NORAD_CAT_ID":65845,"ELEMENT_SET_NO":999,"REV_AT_EPOCH":2469,"BSTAR":0.00075092144,"MEAN_MOTION_DOT":0.00021946,"MEAN_MOTION_DDOT":0}]
